CZ-2F DEB               
1 67692U 26024D   26051.60221176  .00199552  00000+0  39210-2 0  9990
2 67692  50.3133 102.2309 0256163 212.8077 145.6751 15.18020334  2024
STARLINK-36748          
1 67693U 26025A   26051.83335647 -.01705530  00000+0 -87050-2 0  9993
2 67693  97.2785 162.5083 0001382  89.0051 207.9133 15.84327490  3149
STARLINK-36753          
1 67694U 26025B   26051.83335647 -.01676944  00000+0 -81717-2 0  9994
2 67694  97.2769 162.5191 0001479  72.9436 250.0738 15.85232333  3307
STARLINK-36750          
1 67695U 26025C   26051.83335647 -.01694731  00000+0 -85047-2 0  9999
2 67695  97.2780 162.5120 0001334  98.1800 208.2820 15.84659378  3148
STARLINK-36401          
1 67696U 26025D   26051.83335647 -.01689603  00000+0 -83669-2 0  9990
2 67696  97.2775 162.5152 0001242  86.5103 227.7099 15.84926829  3145
STARLINK-36704          
1 67697U 26025E   26051.83335647 -.01684447  00000+0 -80840-2 0  9990
2 67697  97.2763 162.5225 0001497  77.7633 254.0843 15.85560373  3145
STARLINK-36697          
1 67698U 26025F   26051.83335647 -.01675928  00000+0 -79519-2 0  9996
2 67698  97.2762 162.5256 0001329  80.1927 258.0556 15.85780969  3091
STARLINK-36716          
1 67699U 26025G   26051.83335647 -.01682366  00000+0 -78693-2 0  9993
2 67699  97.2755 162.5288 0001333  81.1872 265.3560 15.86085394  3305
STARLINK-36712          
1 67700U 26025H   26051.83335647 -.01667434  00000+0 -76815-2 0  9999
2 67700  97.2752 162.5325 0001467  73.9461 280.6465 15.86367237  3097
STARLINK-36713          
1 67701U 26025J   26051.83335647 -.01674455  00000+0 -76080-2 0  9995
2 67701  97.2747 162.5352 0001477  68.9874 293.6126 15.86661433  3302
STARLINK-36695          
1 67702U 26025K   26051.83335647 -.01660605  00000+0 -74506-2 0  9999
2 67702  97.2743 162.5379 0001413  67.8479 301.3974 15.86892921  3145
STARLINK-36630          
1 67703U 26025L   26051.83335647 -.01662286  00000+0 -73757-2 0  9994
2 67703  97.2741 162.5411 0001373  72.7274 302.9491 15.87121517  3142
