CCSDS_OMM_VERS = 2.0
CREATION_DATE  = 
ORIGINATOR     = 

OBJECT_NAME    = CZ-2F DEB
OBJECT_ID      = 2026-024D
CENTER_NAME    = EARTH
REF_FRAME      = TEME
TIME_SYSTEM    = UTC
MEAN_ELEMENT_THEORY = SGP/SGP4

EPOCH          = 2026-02-20T14:27:11.096064
MEAN_MOTION    = 15.18020334
ECCENTRICITY   = .0256163
INCLINATION    = 50.3133
RA_OF_ASC_NODE = 102.2309
ARG_OF_PERICENTER = 212.8077
MEAN_ANOMALY   = 145.6751

EPHEMERIS_TYPE = 0
CLASSIFICATION_TYPE = U
NORAD_CAT_ID   = 67692
ELEMENT_SET_NO = 999
REV_AT_EPOCH   = 202
BSTAR          = .3921E-2
MEAN_MOTION_DOT = .199552E-2
MEAN_MOTION_DDOT = 0

CCSDS_OMM_VERS = 2.0
CREATION_DATE  = 
ORIGINATOR     = 

OBJECT_NAME    = STARLINK-36748
OBJECT_ID      = 2026-025A
CENTER_NAME    = EARTH
REF_FRAME      = TEME
TIME_SYSTEM    = UTC
MEAN_ELEMENT_THEORY = SGP/SGP4

EPOCH          = 2026-02-20T20:00:01.999008
MEAN_MOTION    = 15.84327490
ECCENTRICITY   = .0001382
INCLINATION    = 97.2785
RA_OF_ASC_NODE = 162.5083
ARG_OF_PERICENTER = 89.0051
MEAN_ANOMALY   = 207.9133

EPHEMERIS_TYPE = 0
CLASSIFICATION_TYPE = U
NORAD_CAT_ID   = 67693
ELEMENT_SET_NO = 999
REV_AT_EPOCH   = 314
BSTAR          = -.8705E-2
MEAN_MOTION_DOT = -.170553E-1
MEAN_MOTION_DDOT = 0

CCSDS_OMM_VERS = 2.0
CREATION_DATE  = 
ORIGINATOR     = 

OBJECT_NAME    = STARLINK-36753
OBJECT_ID      = 2026-025B
CENTER_NAME    = EARTH
REF_FRAME      = TEME
TIME_SYSTEM    = UTC
MEAN_ELEMENT_THEORY = SGP/SGP4

EPOCH          = 2026-02-20T20:00:01.999008
MEAN_MOTION    = 15.85232333
ECCENTRICITY   = .0001479
INCLINATION    = 97.2769
RA_OF_ASC_NODE = 162.5191
ARG_OF_PERICENTER = 72.9436
MEAN_ANOMALY   = 250.0738

EPHEMERIS_TYPE = 0
CLASSIFICATION_TYPE = U
NORAD_CAT_ID   = 67694
ELEMENT_SET_NO = 999
REV_AT_EPOCH   = 330
BSTAR          = -.81717E-2
MEAN_MOTION_DOT = -.1676944E-1
MEAN_MOTION_DDOT = 0

CCSDS_OMM_VERS = 2.0
CREATION_DATE  = 
ORIGINATOR     = 

OBJECT_NAME    = STARLINK-36750
OBJECT_ID      = 2026-025C
CENTER_NAME    = EARTH
REF_FRAME      = TEME
TIME_SYSTEM    = UTC
MEAN_ELEMENT_THEORY = SGP/SGP4

EPOCH          = 2026-02-20T20:00:01.999008
MEAN_MOTION    = 15.84659378
ECCENTRICITY   = .0001334
INCLINATION    = 97.2780
RA_OF_ASC_NODE = 162.5120
ARG_OF_PERICENTER = 98.1800
MEAN_ANOMALY   = 208.2820

EPHEMERIS_TYPE = 0
CLASSIFICATION_TYPE = U
NORAD_CAT_ID   = 67695
ELEMENT_SET_NO = 999
REV_AT_EPOCH   = 314
BSTAR          = -.85047E-2
MEAN_MOTION_DOT = -.1694731E-1
MEAN_MOTION_DDOT = 0

CCSDS_OMM_VERS = 2.0
CREATION_DATE  = 
ORIGINATOR     = 

OBJECT_NAME    = STARLINK-36401
OBJECT_ID      = 2026-025D
CENTER_NAME    = EARTH
REF_FRAME      = TEME
TIME_SYSTEM    = UTC
MEAN_ELEMENT_THEORY = SGP/SGP4

EPOCH          = 2026-02-20T20:00:01.999008
MEAN_MOTION    = 15.84926829
ECCENTRICITY   = .0001242
INCLINATION    = 97.2775
RA_OF_ASC_NODE = 162.5152
ARG_OF_PERICENTER = 86.5103
MEAN_ANOMALY   = 227.7099

EPHEMERIS_TYPE = 0
CLASSIFICATION_TYPE = U
NORAD_CAT_ID   = 67696
ELEMENT_SET_NO = 999
REV_AT_EPOCH   = 314
BSTAR          = -.83669E-2
MEAN_MOTION_DOT = -.1689603E-1
MEAN_MOTION_DDOT = 0

CCSDS_OMM_VERS = 2.0
CREATION_DATE  = 
ORIGINATOR     = 

OBJECT_NAME    = STARLINK-36704
OBJECT_ID      = 2026-025E
CENTER_NAME    = EARTH
REF_FRAME      = TEME
TIME_SYSTEM    = UTC
MEAN_ELEMENT_THEORY = SGP/SGP4

EPOCH          = 2026-02-20T20:00:01.999008
MEAN_MOTION    = 15.85560373
ECCENTRICITY   = .0001497
INCLINATION    = 97.2763
RA_OF_ASC_NODE = 162.5225
ARG_OF_PERICENTER = 77.7633
MEAN_ANOMALY   = 254.0843

EPHEMERIS_TYPE = 0
CLASSIFICATION_TYPE = U
NORAD_CAT_ID   = 67697
ELEMENT_SET_NO = 999
REV_AT_EPOCH   = 314
BSTAR          = -.8084E-2
MEAN_MOTION_DOT = -.1684447E-1
MEAN_MOTION_DDOT = 0

CCSDS_OMM_VERS = 2.0
CREATION_DATE  = 
ORIGINATOR     = 

OBJECT_NAME    = STARLINK-36697
OBJECT_ID      = 2026-025F
CENTER_NAME    = EARTH
REF_FRAME      = TEME
TIME_SYSTEM    = UTC
MEAN_ELEMENT_THEORY = SGP/SGP4

EPOCH          = 2026-02-20T20:00:01.999008
MEAN_MOTION    = 15.85780969
ECCENTRICITY   = .0001329
INCLINATION    = 97.2762
RA_OF_ASC_NODE = 162.5256
ARG_OF_PERICENTER = 80.1927
MEAN_ANOMALY   = 258.0556

EPHEMERIS_TYPE = 0
CLASSIFICATION_TYPE = U
NORAD_CAT_ID   = 67698
ELEMENT_SET_NO = 999
REV_AT_EPOCH   = 309
BSTAR          = -.79519E-2
MEAN_MOTION_DOT = -.1675928E-1
MEAN_MOTION_DDOT = 0

CCSDS_OMM_VERS = 2.0
CREATION_DATE  = 
ORIGINATOR     = 

OBJECT_NAME    = STARLINK-36716
OBJECT_ID      = 2026-025G
CENTER_NAME    = EARTH
REF_FRAME      = TEME
TIME_SYSTEM    = UTC
MEAN_ELEMENT_THEORY = SGP/SGP4

EPOCH          = 2026-02-20T20:00:01.999008
MEAN_MOTION    = 15.86085394
ECCENTRICITY   = .0001333
INCLINATION    = 97.2755
RA_OF_ASC_NODE = 162.5288
ARG_OF_PERICENTER = 81.1872
MEAN_ANOMALY   = 265.3560

EPHEMERIS_TYPE = 0
CLASSIFICATION_TYPE = U
NORAD_CAT_ID   = 67699
ELEMENT_SET_NO = 999
REV_AT_EPOCH   = 330
BSTAR          = -.78693E-2
MEAN_MOTION_DOT = -.1682366E-1
MEAN_MOTION_DDOT = 0

CCSDS_OMM_VERS = 2.0
CREATION_DATE  = 
ORIGINATOR     = 

OBJECT_NAME    = STARLINK-36712
OBJECT_ID      = 2026-025H
CENTER_NAME    = EARTH
REF_FRAME      = TEME
TIME_SYSTEM    = UTC
MEAN_ELEMENT_THEORY = SGP/SGP4

EPOCH          = 2026-02-20T20:00:01.999008
MEAN_MOTION    = 15.86367237
ECCENTRICITY   = .0001467
INCLINATION    = 97.2752
RA_OF_ASC_NODE = 162.5325
ARG_OF_PERICENTER = 73.9461
MEAN_ANOMALY   = 280.6465

EPHEMERIS_TYPE = 0
CLASSIFICATION_TYPE = U
NORAD_CAT_ID   = 67700
ELEMENT_SET_NO = 999
REV_AT_EPOCH   = 309
BSTAR          = -.76815E-2
MEAN_MOTION_DOT = -.1667434E-1
MEAN_MOTION_DDOT = 0

CCSDS_OMM_VERS = 2.0
CREATION_DATE  = 
ORIGINATOR     = 

OBJECT_NAME    = STARLINK-36713
OBJECT_ID      = 2026-025J
CENTER_NAME    = EARTH
REF_FRAME      = TEME
TIME_SYSTEM    = UTC
MEAN_ELEMENT_THEORY = SGP/SGP4

EPOCH          = 2026-02-20T20:00:01.999008
MEAN_MOTION    = 15.86661433
ECCENTRICITY   = .0001477
INCLINATION    = 97.2747
RA_OF_ASC_NODE = 162.5352
ARG_OF_PERICENTER = 68.9874
MEAN_ANOMALY   = 293.6126

EPHEMERIS_TYPE = 0
CLASSIFICATION_TYPE = U
NORAD_CAT_ID   = 67701
ELEMENT_SET_NO = 999
REV_AT_EPOCH   = 330
BSTAR          = -.7608E-2
MEAN_MOTION_DOT = -.1674455E-1
MEAN_MOTION_DDOT = 0

CCSDS_OMM_VERS = 2.0
CREATION_DATE  = 
ORIGINATOR     = 

OBJECT_NAME    = STARLINK-36695
OBJECT_ID      = 2026-025K
CENTER_NAME    = EARTH
REF_FRAME      = TEME
TIME_SYSTEM    = UTC
MEAN_ELEMENT_THEORY = SGP/SGP4

EPOCH          = 2026-02-20T20:00:01.999008
MEAN_MOTION    = 15.86892921
ECCENTRICITY   = .0001413
INCLINATION    = 97.2743
RA_OF_ASC_NODE = 162.5379
ARG_OF_PERICENTER = 67.8479
MEAN_ANOMALY   = 301.3974

EPHEMERIS_TYPE = 0
CLASSIFICATION_TYPE = U
NORAD_CAT_ID   = 67702
ELEMENT_SET_NO = 999
REV_AT_EPOCH   = 314
BSTAR          = -.74506E-2
MEAN_MOTION_DOT = -.1660605E-1
MEAN_MOTION_DDOT = 0

CCSDS_OMM_VERS = 2.0
CREATION_DATE  = 
ORIGINATOR     = 

OBJECT_NAME    = STARLINK-36630
OBJECT_ID      = 2026-025L
CENTER_NAME    = EARTH
REF_FRAME      = TEME
TIME_SYSTEM    = UTC
MEAN_ELEMENT_THEORY = SGP/SGP4

EPOCH          = 2026-02-20T20:00:01.999008
MEAN_MOTION    = 15.87121517
ECCENTRICITY   = .0001373
INCLINATION    = 97.2741
RA_OF_ASC_NODE = 162.5411
ARG_OF_PERICENTER = 72.7274
MEAN_ANOMALY   = 302.9491

EPHEMERIS_TYPE = 0
CLASSIFICATION_TYPE = U
NORAD_CAT_ID   = 67703
ELEMENT_SET_NO = 999
REV_AT_EPOCH   = 314
BSTAR          = -.73757E-2
MEAN_MOTION_DOT = -.1662286E-1
MEAN_MOTION_DDOT = 0

